NORAD_CAT_ID,OBJECT_NAME,OBJECT_TYPE,EPOCH,MEAN_MOTION,ECCENTRICITY,INCLINATION,RA_OF_ASC_NODE,ARG_OF_PERICENTER,MEAN_ANOMALY,BSTAR,MEAN_MOTION_DOT,MEAN_MOTION_DDOT,TLE_LINE0,TLE_LINE1,TLE_LINE2,SEMIMAJOR_AXIS,PERIOD,APOGEE,PERIGEE,DECAYED
52830.0,STARLINK-4091,PAYLOAD,2023-11-27 21:08:03,15.08839152,0.0001397,53.2146,172.9373,83.2286,276.8865,-0.00012627,-2.297e-05,0.0,0 STARLINK-4091,1 52830U 22062A   23331.88059168 -.00002297  00000-0 -12627-3 0  9990,2 52830  53.2146 172.9373 0001397  83.2286 276.8865 15.08839152 80059,6917.883,95.438,540.714,538.782,0.0
52830.0,STARLINK-4091,PAYLOAD,2023-11-28 13:01:54,15.08844355,0.0001502,53.2155,169.9627,76.5366,283.5794,0.00014673,2.048e-05,0.0,0 STARLINK-4091,1 52830U 22062A   23332.54299107  .00002048  00000-0  14673-3 0  9998,2 52830  53.2155 169.9627 0001502  76.5366 283.5794 15.08844355 80157,6917.867,95.437,540.771,538.693,0.0
52830.0,STARLINK-4091,PAYLOAD,2023-11-28 19:23:26,15.08850142,0.0001465,53.2151,168.7757,73.4954,286.6199,0.00021285,3.102e-05,0.0,0 STARLINK-4091,1 52830U 22062A   23332.80794722  .00003102  00000-0  21285-3 0  9999,2 52830  53.2151 168.7757 0001465  73.4954 286.6199 15.08850142 80706,6917.849,95.437,540.728,538.701,0.0
52830.0,STARLINK-4091,PAYLOAD,2023-11-28 20:58:49,15.088521,0.0001489,53.2153,168.4783,72.504,287.6114,0.0002371,3.489e-05,0.0,0 STARLINK-4091,1 52830U 22062A   23332.87418600  .00003489  00000-0  23710-3 0  9997,2 52830  53.2153 168.4783 0001489  72.5040 287.6114 15.08852100 80205,6917.843,95.437,540.738,538.678,0.0
52830.0,STARLINK-4091,PAYLOAD,2023-11-29 12:52:41,15.08842549,0.0001412,53.2165,165.5059,94.6084,265.5069,0.00011106,1.48e-05,0.0,0 STARLINK-4091,1 52830U 22062A   23333.53659066  .00001480  00000-0  11106-3 0  9999,2 52830  53.2165 165.5059 0001412  94.6084 265.5069 15.08842549 80818,6917.873,95.437,540.714,538.761,0.0
52830.0,STARLINK-4091,PAYLOAD,2023-11-30 19:05:00,15.08847247,0.0001377,53.2167,159.8533,108.4955,251.6187,7.8038e-05,9.54e-06,0.0,0 STARLINK-4091,1 52830U 22062A   23334.79514833  .00000954  00000-0  78038-4 0  9993,2 52830  53.2167 159.8533 0001377 108.4955 251.6187 15.08847247 81003,6917.858,95.437,540.676,538.771,0.0
52830.0,STARLINK-4091,PAYLOAD,2023-12-01 18:55:48,15.08845207,0.000126,53.2166,155.3922,94.2564,265.8572,0.00018798,2.705e-05,0.0,0 STARLINK-4091,1 52830U 22062A   23335.78875040  .00002705  00000-0  18798-3 0  9995,2 52830  53.2166 155.3922 0001260  94.2564 265.8572 15.08845207 81159,6917.864,95.437,540.601,538.858,0.0
52830.0,STARLINK-4091,PAYLOAD,2023-12-02 12:25:02,15.08849182,0.0001523,53.2168,152.124,101.7529,258.3634,0.00021864,3.194e-05,0.0,0 STARLINK-4091,1 52830U 22062A   23336.51738718  .00003194  00000-0  21864-3 0  9998,2 52830  53.2168 152.1240 0001523 101.7529 258.3634 15.08849182 80753,6917.852,95.437,540.771,538.664,0.0
52830.0,STARLINK-4091,PAYLOAD,2023-12-02 18:46:34,15.08846165,0.0001514,53.2167,150.9343,102.6072,257.5089,0.00013713,1.895e-05,0.0,0 STARLINK-4091,1 52830U 22062A   23336.78234698  .00001895  00000-0  13713-3 0  9995,2 52830  53.2167 150.9343 0001514 102.6072 257.5089 15.08846165 80792,6917.862,95.437,540.774,538.679,0.0
52830.0,STARLINK-4091,PAYLOAD,2023-12-03 12:15:49,15.08834842,0.0001474,53.2169,147.6604,92.9535,267.1625,-4.0106e-05,-9.26e-06,0.0,0 STARLINK-4091,1 52830U 22062A   23337.51099370 -.00000926  00000-0 -40106-4 0  9996,2 52830  53.2169 147.6604 0001474  92.9535 267.1625 15.08834842 81419,6917.896,95.438,540.781,538.741,0.0
52830.0,STARLINK-4091,PAYLOAD,2023-12-03 18:37:23,15.08827556,0.0001503,53.2178,146.4718,96.4209,263.6955,-5.8969e-05,-1.226e-05,0.0,0 STARLINK-4091,1 52830U 22062A   23337.77596444 -.00001226  00000-0 -58969-4 0  9998,2 52830  53.2178 146.4718 0001503  96.4209 263.6955 15.08827556 81457,6917.918,95.438,540.823,538.744,0.0
52830.0,STARLINK-4091,PAYLOAD,2023-12-04 20:03:33,15.088344,0.0001203,53.2173,141.7132,94.0365,266.0765,-1.088e-05,-4.61e-06,0.0,0 STARLINK-4091,1 52830U 22062A   23338.83580383 -.00000461  00000-0 -10880-4 0  9991,2 52830  53.2173 141.7132 0001203  94.0365 266.0765 15.08834400 81614,6917.898,95.438,540.595,538.93,0.0
52830.0,STARLINK-4091,PAYLOAD,2023-12-05 11:57:24,15.08833274,0.0001357,53.2177,138.7412,82.2715,277.8431,0.00017737,2.536e-05,0.0,0 STARLINK-4091,1 52830U 22062A   23339.49820337  .00002536  00000-0  17737-3 0  9990,2 52830  53.2177 138.7412 0001357  82.2715 277.8431 15.08833274 81206,6917.901,95.438,540.705,538.827,0.0
52830.0,STARLINK-4091,PAYLOAD,2023-12-05 19:54:20,15.0883796,0.0001346,53.2174,137.254,81.6064,278.5081,0.00019972,2.892e-05,0.0,0 STARLINK-4091,1 52830U 22062A   23339.82940119  .00002892  00000-0  19972-3 0  9996,2 52830  53.2174 137.2540 0001346  81.6064 278.5081 15.08837960 81763,6917.887,95.438,540.683,538.82,0.0
52830.0,STARLINK-4091,PAYLOAD,2023-12-06 10:12:48,15.08842488,0.0001403,53.2171,134.5774,86.3738,273.7415,7.008e-05,8.28e-06,0.0,0 STARLINK-4091,1 52830U 22062A   23340.42555910  .00000828  00000-0  70080-4 0  9990,2 52830  53.2171 134.5774 0001403  86.3738 273.7415 15.08842488 81346,6917.873,95.437,540.708,538.767,0.0
52830.0,STARLINK-4091,PAYLOAD,2023-12-08 11:29:45,15.08841429,0.0001083,53.2161,125.3594,77.8592,282.2522,4.8176e-05,4.79e-06,0.0,0 STARLINK-4091,1 52830U 22062A   23342.47899927  .00000479  00000-0  48176-4 0  9999,2 52830  53.2161 125.3594 0001083  77.8592 282.2522 15.08841429 82169,6917.876,95.437,540.49,538.992,0.0
52830.0,STARLINK-4091,PAYLOAD,2023-12-08 13:05:08,15.08840888,0.000131,53.2166,125.0617,95.5932,264.5209,3.5253e-05,2.73e-06,0.0,0 STARLINK-4091,1 52830U 22062A   23342.54523935  .00000273  00000-0  35253-4 0  9994,2 52830  53.2166 125.0617 0001310  95.5932 264.5209 15.08840888 81662,6917.878,95.437,540.649,538.836,0.0
52830.0,STARLINK-4091,PAYLOAD,2023-12-08 21:02:04,15.088442,0.000129,53.2168,123.575,93.5942,266.5198,5.6645e-05,6.14e-06,0.0,0 STARLINK-4091,1 52830U 22062A   23342.87643586  .00000614  00000-0  56645-4 0  9992,2 52830  53.2168 123.5750 0001290  93.5942 266.5198 15.08844200 81718,6917.868,95.437,540.625,538.84,0.0
52830.0,STARLINK-4091,PAYLOAD,2023-12-09 12:55:55,15.08839974,0.0001261,53.2169,120.6015,95.7795,264.3341,5.5592e-05,5.97e-06,0.0,0 STARLINK-4091,1 52830U 22062A   23343.53883735  .00000597  00000-0  55592-4 0  9998,2 52830  53.2169 120.6015 0001261  95.7795 264.3341 15.08839974 81818,6917.88,95.438,540.618,538.873,0.0
52830.0,STARLINK-4091,PAYLOAD,2023-12-09 19:17:27,15.08842371,0.0001256,53.2169,119.412,94.6499,265.4637,7.1379e-05,8.48e-06,0.0,0 STARLINK-4091,1 52830U 22062A   23343.80379519  .00000848  00000-0  71379-4 0  9998,2 52830  53.2169 119.4120 0001256  94.6499 265.4637 15.08842371 82360,6917.873,95.437,540.607,538.869,0.0
52830.0,STARLINK-4091,PAYLOAD,2023-12-09 20:52:50,15.088433,0.0001248,53.2168,119.1147,94.3765,265.7369,7.7331e-05,9.43e-06,0.0,0 STARLINK-4091,1 52830U 22062A   23343.87003410  .00000943  00000-0  77331-4 0  9999,2 52830  53.2168 119.1147 0001248  94.3765 265.7369 15.08843300 81861,6917.87,95.437,540.599,538.872,0.0
52830.0,STARLINK-4091,PAYLOAD,2023-12-10 11:11:20,15.08833742,0.0001267,53.2169,116.4386,93.1882,266.9255,-7.9892e-06,-4.15e-06,0.0,0 STARLINK-4091,1 52830U 22062A   23344.46620387 -.00000415  00000-0 -79892-5 0  9994,2 52830  53.2169 116.4386 0001267  93.1882 266.9255 15.08833742 82468,6917.9,95.438,540.641,538.888,0.0
52830.0,STARLINK-4091,PAYLOAD,2023-12-10 14:22:06,15.08836342,0.0001256,53.217,115.8439,92.9982,267.1154,1.2185e-05,-9.4e-07,0.0,0 STARLINK-4091,1 52830U 22062A   23344.59868183 -.00000094  00000-0  12185-4 0  9999,2 52830  53.2170 115.8439 0001256  92.9982 267.1154 15.08836342 81973,6917.892,95.438,540.625,538.888,0.0
52830.0,STARLINK-4091,PAYLOAD,2023-12-10 19:08:15,15.08840772,0.0001261,53.2169,114.9518,93.1655,266.9482,4.6849e-05,4.58e-06,0.0,0 STARLINK-4091,1 52830U 22062A   23344.79739796  .00000458  00000-0  46849-4 0  9995,2 52830  53.2169 114.9518 0001261  93.1655 266.9482 15.08840772 82519,6917.878,95.438,540.615,538.871,0.0
52830.0,STARLINK-4091,PAYLOAD,2023-12-10 20:43:38,15.08841019,0.000126,53.2169,114.6544,92.9328,267.1808,4.5054e-05,4.29e-06,0.0,0 STARLINK-4091,1 52830U 22062A   23344.86363750  .00000429  00000-0  45054-4 0  9991,2 52830  53.2169 114.6544 0001260  92.9328 267.1808 15.08841019 82013,6917.877,95.437,540.614,538.871,0.0
52830.0,STARLINK-4091,PAYLOAD,2023-12-11 11:02:07,15.08831619,0.000123,53.2171,111.9782,94.3238,265.7894,7.6635e-06,-1.66e-06,0.0,0 STARLINK-4091,1 52830U 22062A   23345.45980648 -.00000166  00000-0  76635-5 0  9997,2 52830  53.2171 111.9782 0001230  94.3238 265.7894 15.08831619 82613,6917.906,95.438,540.622,538.92,0.0
52830.0,STARLINK-4091,PAYLOAD,2023-12-11 14:12:53,15.08834241,0.0001234,53.217,111.3837,92.7267,267.3866,4.4233e-06,-2.17e-06,0.0,0 STARLINK-4091,1 52830U 22062A   23345.59228549 -.00000217  00000-0  44233-5 0  9993,2 52830  53.2170 111.3837 0001234  92.7267 267.3866 15.08834241 82122,6917.898,95.438,540.617,538.909,0.0
52830.0,STARLINK-4091,PAYLOAD,2023-12-11 18:59:02,15.0883815,0.0001225,53.217,110.4916,91.6943,268.4189,2.4068e-05,9.5e-07,0.0,0 STARLINK-4091,1 52830U 22062A   23345.79100281  .00000095  00000-0  24068-4 0  9993,2 52830  53.2170 110.4916 0001225  91.6943 268.4189 15.08838150 82155,6917.886,95.438,540.598,538.904,0.0
52830.0,STARLINK-4091,PAYLOAD,2023-12-12 12:28:17,15.08832795,0.0001162,53.2172,107.2205,93.4629,266.6496,-3.4889e-06,-3.43e-06,0.0,0 STARLINK-4091,1 52830U 22062A   23346.51964981 -.00000343  00000-0 -34889-5 0  9990,2 52830  53.2172 107.2205 0001162  93.4629 266.6496 15.08832795 82771,6917.902,95.438,540.571,538.964,0.0
52830.0,STARLINK-4091,PAYLOAD,2023-12-12 14:03:40,15.08834782,0.0001177,53.2172,106.9232,92.4755,267.6372,1.3954e-05,-6.6e-07,0.0,0 STARLINK-4091,1 52830U 22062A   23346.58588830 -.00000066  00000-0  13954-4 0  9992,2 52830  53.2172 106.9232 0001177  92.4755 267.6372 15.08834782 82279,6917.896,95.438,540.576,538.947,0.0
